GLOBALSTAR M001 [-]     
1 25162U 98008A   23351.56370951 -.00000075  00000+0  16237-3 0  9995
2 25162  52.0017 127.0714 0002351 149.3624 290.3063 12.38175273175875
GLOBALSTAR M004 [-]     
1 25163U 98008B   23351.13460715 -.00000032  00000+0  39588-3 0  9994
2 25163  52.0004 286.0667 0002976 139.6219 322.9555 12.63344838192410
GLOBALSTAR M002 [-]     
1 25164U 98008C   23350.80494455 -.00000092  00000+0 -29922-3 0  9994
2 25164  51.9981 175.1661 0001174 155.1157 204.9720 11.61497566120348
GLOBALSTAR M003 [-]     
1 25165U 98008D   23351.04683064  .00000008  00000+0  10414-2 0  9998
2 25165  51.9778 246.7310 0007220 272.1766 193.6465 12.11960782166759
GLOBALSTAR M014 [-]     
1 25306U 98023A   23351.52165453 -.00000062  00000+0  28845-3 0  9991
2 25306  51.9832 108.1034 0001670  99.2295 342.0126 11.65462998127316
GLOBALSTAR M006 [-]     
1 25307U 98023B   23351.60939111 -.00000076  00000+0 -19100-5 0  9993
2 25307  51.9910 139.8899 0003730 184.1274 258.5576 11.58157804153389
GLOBALSTAR M015 [-]     
1 25308U 98023C   23350.92216090 -.00000129  00000+0 -12734-2 0  9994
2 25308  51.9797 214.9532 0012129 173.0822 285.9830 11.48856689131064
GLOBALSTAR M008 [-]     
1 25309U 98023D   23351.30494653 -.00000114  00000+0 -14154-3 0  9994
2 25309  51.9997 346.4567 0002732  97.8048   4.4554 12.36033508170096
